GLOBALSTAR M023         
1 25621U 99004A   25247.54983929 -.00000021  00000+0  46179-3 0  9990
2 25621  52.0097 171.7799 0010013 304.6097 226.3819 12.62504197225755
GLOBALSTAR M040         
1 25622U 99004B   25247.55600711 -.00000078  00000+0  14623-3 0  9998
2 25622  51.9905 176.0333 0000397 174.5187 356.3478 12.62016408225277
GLOBALSTAR M036         
1 25623U 99004C   25247.74029899 -.00000043  00000+0  58347-3 0  9995
2 25623  51.9990  30.6331 0010736 199.5283 268.5265 11.86607880188425
GLOBALSTAR M038         
1 25624U 99004D   25247.59455895 -.00000077  00000+0  14727-3 0  9999
2 25624  51.9957 202.8864 0001436 220.3701 311.6079 12.32531721212162
GLOBALSTAR M022         
1 25649U 99012A   25247.70953047 -.00000091  00000+0 -45600-4 0  9992
2 25649  52.0041  74.7218 0002486 350.3462  89.9361 12.02502547185943
GLOBALSTAR M041         
1 25650U 99012B   25247.65198366 -.00000079  00000+0  78523-4 0  9998
2 25650  52.0041 318.7575 0001812 115.3359 244.7665 11.96683357187792
GLOBALSTAR M046         
1 25651U 99012C   25247.69505772  .00000024  00000+0  12373-2 0  9994
2 25651  52.0080  21.9927 0002618  66.0177  37.3238 12.09411743193281
GLOBALSTAR M037         
1 25652U 99012D   25247.41814779 -.00000046  00000+0  31981-3 0  9997
2 25652  52.0010 302.7742 0001882  14.5164 358.3515 12.62450551221281
